ONEWEB-0389             
1 50469U 21132A   24261.41151405  .00000094  00000+0  20901-3 0  9996
2 50469  87.9135 132.9114 0001896  65.8782 294.2547 13.17651262134094
ONEWEB-0390             
1 50470U 21132B   24261.41312648  .00000225  00000+0  54602-3 0  9997
2 50470  87.9135 132.9184 0002091  76.8506 283.2859 13.17651299134091
ONEWEB-0391             
1 50471U 21132C   24261.33881203  .00000167  00000+0  39749-3 0  9997
2 50471  87.9144 132.9237 0001790  66.2957 293.8362 13.17648082134080
ONEWEB-0392             
1 50472U 21132D   24261.36787710  .00000100  00000+0  22525-3 0  9990
2 50472  87.9128 132.9046 0001934  61.7874 298.3453 13.17652149134124
ONEWEB-0393             
1 50473U 21132E   24261.56998822  .00000034  00000+0  55248-4 0  9996
2 50473  87.9139 132.8506 0001874  71.0895 289.0440 13.17648900134142
ONEWEB-0394             
1 50474U 21132F   24261.58351182  .00000166  00000+0  38903-3 0  9995
2 50474  87.9058 102.3705 0001661  80.4858 279.6462 13.18686357137560
ONEWEB-0395             
1 50475U 21132G   24261.40233044 -.00000289  00000+0 -85166-3 0  9994
2 50475  87.8966 148.1149 0001991  67.0300 293.1038 13.11415896132125
ONEWEB-0396             
1 50476U 21132H   24261.57717526 -.00001975  00000+0 -50416-2 0  9997
2 50476  87.9065 102.3734 0001811  76.6705 283.4628 13.18697342137605
ONEWEB-0397             
1 50477U 21132J   24261.59142244  .00000097  00000+0  21273-3 0  9991
2 50477  87.9063 102.3720 0001480  86.0203 274.1098 13.18684625137584
ONEWEB-0398             
1 50478U 21132K   24261.44641956  .00000523  00000+0  14409-2 0  9996
2 50478  87.8960 148.0820 0002219  75.8144 284.3231 13.11415928132026
ONEWEB-0399             
1 50479U 21132L   24261.43285550  .00000247  00000+0  66205-3 0  9995
2 50479  87.8966 148.1032 0001474  67.4336 292.6947 13.11418414132019
ONEWEB-0400             
1 50480U 21132M   24261.57085009  .00000135  00000+0  30894-3 0  9990
2 50480  87.9059 102.3763 0001936  85.1863 274.9490 13.18688135137571
ONEWEB-0401             
1 50481U 21132N   24261.61353606  .00000052  00000+0  98642-4 0  9991
2 50481  87.9057 102.3636 0001436  87.9699 272.1597 13.18687463137583
ONEWEB-0402             
1 50482U 21132P   24261.57877484 -.00000012  00000+0 -62725-4 0  9993
2 50482  87.9057 102.3678 0001079 104.1129 256.0123 13.18684448137602
ONEWEB-0403             
1 50483U 21132Q   24261.60248090  .00000114  00000+0  25580-3 0  9991
2 50483  87.9060 102.3727 0001555  80.3886 279.7421 13.18688368137569
ONEWEB-0404             
1 50484U 21132R   24261.41418443 -.00000406  00000+0 -11827-2 0  9996
2 50484  87.8974 148.0861 0001823  60.7785 299.3525 13.11414861132103
ONEWEB-0405             
1 50485U 21132S   24261.54238838  .00000012  00000+0 -28659-5 0  9995
2 50485  87.9060 102.3744 0001300  88.0641 272.0640 13.18688178137953
ONEWEB-0406             
1 50486U 21132T   24261.83484217  .00000076  00000+0  16053-3 0  9994
2 50486  87.9059 102.3295 0002193  69.9159 290.2209 13.18688371138911
ONEWEB-0407             
1 50487U 21132U   24261.60089744  .00000086  00000+0  18557-3 0  9998
2 50487  87.9056 102.3737 0001513  82.7668 277.3636 13.18686942137532
ONEWEB-0409             
1 50488U 21132V   24261.41250197 -.00000420  00000+0 -12214-2 0  9997
2 50488  87.8966 148.0752 0002052  66.3389 293.7954 13.11417075131994
ONEWEB-0412             
1 50489U 21132W   24261.58983406  .00000124  00000+0  28128-3 0  9993
2 50489  87.9062 102.3801 0001242  90.7022 269.4253 13.18686038137628
ONEWEB-0413             
1 50490U 21132X   24261.59457629  .00000090  00000+0  19533-3 0  9991
2 50490  87.9062 102.3917 0001417  95.3603 264.7691 13.18687090137564
ONEWEB-0414             
1 50491U 21132Y   24261.58035250  .00000047  00000+0  85708-4 0  9993
2 50491  87.9058 102.3694 0001421  81.3843 278.7450 13.18684887137590
ONEWEB-0417             
1 50492U 21132Z   24261.58825494  .00000059  00000+0  11627-3 0  9992
2 50492  87.9066 102.3770 0001783  76.6724 283.4607 13.18686783137573
ONEWEB-0418             
1 50493U 21132AA  24261.59759832  .00000085  00000+0  18372-3 0  9999
2 50493  87.9062 102.3748 0001852  69.2563 290.8768 13.18686544137633
ONEWEB-0419             
1 50494U 21132AB  24261.61513111 -.00000007  00000+0 -49466-4 0  9996
2 50494  87.9055 102.3853 0002094  80.9672 279.1697 13.18686486137550
ONEWEB-0420             
1 50495U 21132AC  24261.58192975  .00000062  00000+0  12529-3 0  9992
2 50495  87.9058 102.4006 0001632  94.8867 265.2452 13.18686730137548
ONEWEB-0421             
1 50496U 21132AD  24261.57560747  .00000036  00000+0  57698-4 0  9996
2 50496  87.9065 102.3744 0001308  82.5557 277.5723 13.18686672137581
ONEWEB-0424             
1 50497U 21132AE  24261.61038666  .00000078  00000+0  16555-3 0  9994
2 50497  87.9060 102.3694 0002236  82.8583 277.2803 13.18685757137617
ONEWEB-0426             
1 50498U 21132AF  24261.57244058  .00000054  00000+0  10314-3 0  9995
2 50498  87.9056 102.3905 0001475  62.4559 297.6723 13.18687258137557
ONEWEB-0427             
1 50499U 21132AG  24261.60877773 -.00000397  00000+0 -10387-2 0  9997
2 50499  87.9057 102.3619 0001796  75.3456 284.7876 13.18685424137588
ONEWEB-0429             
1 50500U 21132AH  24261.59615767  .00000073  00000+0  15145-3 0  9998
2 50500  87.9065 102.3760 0001688  90.9287 269.2038 13.18686685137557
ONEWEB-0430             
1 50501U 21132AJ  24261.58508035  .00000067  00000+0  13818-3 0  9995
2 50501  87.9061 102.3797 0002128  90.4887 269.6489 13.18687007137592
ONEWEB-0432             
1 50502U 21132AK  24261.61669028  .00000178  00000+0  41900-3 0  9996
2 50502  87.9057 102.3655 0002204  80.8582 279.2800 13.18687453137556
ONEWEB-0440             
1 50503U 21132AL  24261.60404675  .00000058  00000+0  11326-3 0  9997
2 50503  87.9063 102.3592 0001201  94.9465 265.1804 13.18688210137545
ONEWEB-0450             
1 50504U 21132AM  24261.59788117  .00000045  00000+0  82218-4 0  9997
2 50504  87.9061 102.3888 0001897  96.7851 263.3497 13.18685199137576
ONEWEB-0410             
1 51622U 22012A   24261.12554101  .00000032  00000+0  50278-4 0  9997
2 51622  87.9134 132.9465 0002140  34.3590 325.7680 13.17649095129672
ONEWEB-0411             
1 51623U 22012B   24261.42789301  .00000384  00000+0  10632-2 0  9991
2 51623  87.8983 163.1789 0002439  81.5091 278.6313 13.10370982125764
ONEWEB-0415             
1 51624U 22012C   24261.42457311  .00000520  00000+0  14534-2 0  9992
2 51624  87.8977 163.1973 0002146  75.7095 284.4271 13.10371160125764
ONEWEB-0416             
1 51625U 22012D   24261.43619621  .00000467  00000+0  13025-2 0  9992
2 51625  87.8983 163.1955 0001880  69.0515 291.0814 13.10367681125804
ONEWEB-0422             
1 51626U 22012E   24261.59084181  .00000051  00000+0  97177-4 0  9998
2 51626  87.9133 132.8554 0001546 105.7948 254.3354 13.17648721129841
ONEWEB-0423             
1 51627U 22012F   24261.58437634  .00000089  00000+0  19656-3 0  9999
2 51627  87.9137 132.8592 0001647  77.6985 282.4331 13.17651844129733
ONEWEB-0425             
1 51628U 22012G   24261.44613213 -.00000391  00000+0 -11563-2 0  9990
2 51628  87.8982 163.1735 0001622  62.3093 297.8198 13.10371802125802
ONEWEB-0428             
1 51629U 22012H   24261.42623360  .00000456  00000+0  12712-2 0  9990
2 51629  87.8982 163.1945 0001915  83.1609 276.9736 13.10371586125765
ONEWEB-0431             
1 51630U 22012J   24261.62528920 -.00000016  00000+0 -82014-4 0  9998
2 51630  87.8982 163.1460 0002353  87.2028 272.9369 13.10375394125844
ONEWEB-0434             
1 51631U 22012K   24261.44945458 -.00000489  00000+0 -14364-2 0  9993
2 51631  87.8986 163.2016 0001665  77.1977 282.9336 13.10372145125805
ONEWEB-0435             
1 51632U 22012L   24261.76318555 -.00000610  00000+0 -17832-2 0  9990
2 51632  87.8989 163.1312 0001663  87.8258 272.3060 13.10374586127119
ONEWEB-0436             
1 51633U 22012M   24261.57631546  .00000041  00000+0  73030-4 0  9998
2 51633  87.9133 132.8617 0001694  85.1153 275.0172 13.17647301129719
ONEWEB-0438             
1 51634U 22012N   24261.44115646 -.00000206  00000+0 -62555-3 0  9997
2 51634  87.8981 163.1953 0001737  67.3099 292.8212 13.10370398125821
ONEWEB-0439             
1 51635U 22012P   24261.44447533 -.00000462  00000+0 -13607-2 0  9998
2 51635  87.8985 163.1803 0001784  75.7175 284.4151 13.10372004125803
ONEWEB-0442             
1 51636U 22012Q   24261.56903822 -.00000059  00000+0 -18607-3 0  9998
2 51636  87.9135 132.9015 0002020  57.3010 302.8316 13.17646064129707
ONEWEB-0443             
1 51637U 22012R   24261.35980031  .00000234  00000+0  57021-3 0  9999
2 51637  87.9137 132.9515 0001504  85.0892 275.0412 13.17652940129727
ONEWEB-0444             
1 51638U 22012S   24261.43452627  .00000087  00000+0  21221-3 0  9993
2 51638  87.8977 163.1994 0001673  79.0997 281.0319 13.10371197125816
ONEWEB-0445             
1 51639U 22012T   24261.45609204 -.00000501  00000+0 -14713-2 0  9991
2 51639  87.8979 163.1629 0002015  69.3725 290.7618 13.10373476125828
ONEWEB-0446             
1 51640U 22012U   24261.43286421  .00000174  00000+0  46232-3 0  9999
2 51640  87.8983 163.2002 0002087  71.8418 288.2936 13.10370359125807
ONEWEB-0448             
1 51641U 22012V   24261.43783873 -.00000092  00000+0 -29917-3 0  9995
2 51641  87.8981 163.1996 0001728  77.8765 282.2556 13.10371039125773
ONEWEB-0449             
1 51642U 22012W   24261.44281472 -.00000290  00000+0 -86674-3 0  9998
2 51642  87.8977 163.1888 0001721  65.7043 294.4264 13.10370989125782
ONEWEB-0451             
1 51643U 22012X   24261.57306426 -.00004056  00000+0 -10481-1 0  9995
2 51643  87.9130 132.8580 0001569  75.8198 284.3108 13.17666348129693
ONEWEB-0452             
1 51644U 22012Y   24261.72332509  .00001706  00000+0  43604-2 0  9995
2 51644  87.9123 132.8733 0001524  72.3530 287.7768 13.17644670131022
